XW-2F
1 40910U 15049M   16238.79051785  .00001483  00000-0  84211-4 0  9991
2 40910  97.4542 244.4947 0016873 148.7471 211.4768 15.14354489 51434
XW-2B
1 40911U 15049N   16238.84595416  .00001019  00000-0  59883-4 0  9994
2 40911  97.4561 244.4984 0015721 149.7059 210.5085 15.13801554 51443
DCBB
1 40912U 15049P   16238.85604259  .00001568  00000-0  84088-4 0  9996
2 40912  97.4536 245.5345 0017152 143.4720 338.0686 15.16323067 51517
TW-1C
1 40926U 15051B   16238.86493147  .00006909  00000-0  18937-3 0  9990
2 40926  97.2699 275.0498 0014610 152.0857 325.2723 15.37507280 51468
TW-1A
1 40928U 15051D   16238.90514037  .00002959  00000-0  92790-4 0  9990
2 40928  97.2638 273.8481 0014233 169.6149 314.4802 15.33750291 51400
IO-86
1 40931U 15052B   16238.38490872  .00000642  00000-0  30847-6 0  9991
2 40931   5.9998 181.8185 0013712  18.3243 341.7346 14.76475134 49177
GomX-3
1 40949U 98067HA  16238.84296419  .00103071  00000-0  33737-3 0  9997
2 40949  51.6271  31.4250 0001504 271.9219  88.1614 15.89795257 51109
LQSat
1 40958U 15057A   16238.80889464  .00000065  00000-0  18065-4 0  9996
2 40958  98.0105 312.7726 0017039 294.1772  65.7643 14.72890753 47638
AO-85
1 40967U 15058D   16238.41209634  .00000536  00000-0  76922-4 0 02340
2 40967 064.7784 035.9191 0195685 183.3093 176.6743 14.75102622033485
ATHENOXAT-1
1 41168U 15077C   16238.13712465  .00002493  00000-0  10826-3 0  9997
2 41168  14.9856 170.2239 0012773 234.5435 250.1996 15.10245795 38197
ChubuSat-2
1 41338U 16012B   16237.95350248  .00000536  00000-0  35770-4 0  9994
2 41338 031.0024 193.2987 0013921 007.2973 352.7863 14.99455250028484
ChubuSat-3
1 41339U 16012C   16238.25691474  .00000490  00000-0  31930-4 0  9991
2 41339  31.0089 191.0173 0013313  15.4285 344.6769 14.99682311 28509
Horyu-4
1 41340U 16012D   16238.27522012  .00000812  00000-0  56726-4 0  9994
2 41340  31.0044 190.1276 0014204  22.1314 337.9933 15.00132847 28532
OUFTI-1
1 41458U 16025C   16238.73510617  .00002515  00000-0  14382-3 0  9990
2 41458  98.2021 253.1939 0177297 195.4584 164.1184 15.01394419 18211
e-st at r-II
1 41459U 16025D   16238.26934725  .00002195  00000-0  12617-3 0  9992
2 41459  98.2015 252.6952 0177613 197.0400 162.4820 15.01354414 18142
AAUSAT4
1 41460U 16025E   16238.72187622  .00003090  00000-0  17574-3 0  9993
2 41460  98.2085 253.2052 0174606 195.0562 164.5424 15.01704057 18218
MinXSS
1 41474U 98067HU  16238.80789211  .00022560  00000-0  27582-3 0  9998
2 41474  51.6421  68.3325 0001622  65.6931 294.4232 15.60318189 15799
CADRE
1 41475U 98067HV  16238.79601628  .00047842  00000-0  51665-3 0  9991
2 41475  51.6422  67.4818 0001654 110.2611 249.9084 15.62954497 15739
NODES 1
1 41477U 98067HX  16238.78562086  .00016511  00000-0  21410-3 0  9990
2 41477  51.6400  68.9242 0001371  52.4890 307.6227 15.58995416 15693
NODES 2
1 41478U 98067HY  16238.78796165  .00016706  00000-0  21700-3 0  9996
2 41478  51.6399  68.9392 0001324  54.9214 305.1903 15.58939259 15699
NuSat1-LUSEX
1 41557U 16033B   16238.84403388  .00001942  00000-0  79147-4 0  9991
2 41557  97.4926 312.1231 0014382 334.4766 161.8244 15.25625880 13377
NuSat2
1 41558U 16033C   16238.85195804  .00001902  00000-0  77896-4 0  9999
2 41558  97.4952 312.1388 0013768 333.3181 162.2121 15.25485095 13377
Lapan A3
1 41603U 16040E   16238.83975944  .00000246  00000-0  15013-4 0  9990
2 41603  97.5042 297.6041 0014677  29.4313  60.7124 15.19097685  9818
Swayam
1 41607U 16040J   16237.90234142  .00002358  00000-0  11500-3 0  9991
2 41607 097.5027 296.6489 0015781 036.5166 323.7141 15.19204757009598
